ZIYUAN 3-02 (ZY 3-02)   
1 41556U 16033A   26198.97192558  .00002712  00000+0  12348-3 0  9998
2 41556  97.3824 274.1546 0014376 175.2628 184.8747 15.21450066562661
